IRIDIUM 57              
1 25273U 98019B   24204.21419839  .00000845  00000+0  28852-3 0  9999
2 25273  86.3953 283.4499 0002233  93.7455 266.3996 14.35293458377650
IRIDIUM 63              
1 25286U 98021B   24203.59723808  .00000841  00000+0  28376-3 0  9997
2 25286  86.3978 220.6095 0002088  91.7500 268.3936 14.35840035376398
IRIDIUM 69              
1 25319U 98026A   24204.18978354  .00001036  00000+0  32224-3 0  9997
2 25319  86.3960 234.6403 0003994  61.4613 298.6987 14.40092899375798
IRIDIUM 71              
1 25320U 98026B   24204.11282792  .00000953  00000+0  29408-3 0  9993
2 25320  86.3961 229.4272 0004443  93.3448 266.8259 14.40398789376312
IRIDIUM 73              
1 25344U 98032C   24203.99861113  .00001490  00000+0  37470-3 0  9996
2 25344  86.4449 186.8755 0002779  78.5530 281.5986 14.50645894382972
IRIDIUM 82              
1 25467U 98051A   24203.64812718  .00023568  00000+0  11363-2 0  9994
2 25467  86.3754 269.4067 0126423  94.2210 267.3487 15.11691903373690
