<?xml version="1.0" encoding="UTF-8"?>
<ndm xmlns:xsi="http://www.w3.org/2001/XMLSchema-instance" xsi:noNamespaceSchemaLocation="https://sanaregistry.org/r/ndmxml_unqualified/ndmxml-2.0.0-master-2.0.xsd">
<omm id="CCSDS_OMM_VERS" version="2.0">
<header><CREATION_DATE/><ORIGINATOR/></header><body><segment><metadata><OBJECT_NAME>IRIDIUM 57</OBJECT_NAME><OBJECT_ID>1998-019B</OBJECT_ID><CENTER_NAME>EARTH</CENTER_NAME><REF_FRAME>TEME</REF_FRAME><TIME_SYSTEM>UTC</TIME_SYSTEM><MEAN_ELEMENT_THEORY>SGP4</MEAN_ELEMENT_THEORY></metadata><data><meanElements><EPOCH>2024-07-22T05:08:26.740896</EPOCH><MEAN_MOTION>14.35293458</MEAN_MOTION><ECCENTRICITY>.0002233</ECCENTRICITY><INCLINATION>86.3953</INCLINATION><RA_OF_ASC_NODE>283.4499</RA_OF_ASC_NODE><ARG_OF_PERICENTER>93.7455</ARG_OF_PERICENTER><MEAN_ANOMALY>266.3996</MEAN_ANOMALY></meanElements><tleParameters><EPHEMERIS_TYPE>0</EPHEMERIS_TYPE><CLASSIFICATION_TYPE>U</CLASSIFICATION_TYPE><NORAD_CAT_ID>25273</NORAD_CAT_ID><ELEMENT_SET_NO>999</ELEMENT_SET_NO><REV_AT_EPOCH>37765</REV_AT_EPOCH><BSTAR>.28852E-3</BSTAR><MEAN_MOTION_DOT>.845E-5</MEAN_MOTION_DOT><MEAN_MOTION_DDOT>0</MEAN_MOTION_DDOT></tleParameters></data></segment></body></omm>
<omm id="CCSDS_OMM_VERS" version="2.0">
<header><CREATION_DATE/><ORIGINATOR/></header><body><segment><metadata><OBJECT_NAME>IRIDIUM 63</OBJECT_NAME><OBJECT_ID>1998-021B</OBJECT_ID><CENTER_NAME>EARTH</CENTER_NAME><REF_FRAME>TEME</REF_FRAME><TIME_SYSTEM>UTC</TIME_SYSTEM><MEAN_ELEMENT_THEORY>SGP4</MEAN_ELEMENT_THEORY></metadata><data><meanElements><EPOCH>2024-07-21T14:20:01.370112</EPOCH><MEAN_MOTION>14.35840035</MEAN_MOTION><ECCENTRICITY>.0002088</ECCENTRICITY><INCLINATION>86.3978</INCLINATION><RA_OF_ASC_NODE>220.6095</RA_OF_ASC_NODE><ARG_OF_PERICENTER>91.7500</ARG_OF_PERICENTER><MEAN_ANOMALY>268.3936</MEAN_ANOMALY></meanElements><tleParameters><EPHEMERIS_TYPE>0</EPHEMERIS_TYPE><CLASSIFICATION_TYPE>U</CLASSIFICATION_TYPE><NORAD_CAT_ID>25286</NORAD_CAT_ID><ELEMENT_SET_NO>999</ELEMENT_SET_NO><REV_AT_EPOCH>37639</REV_AT_EPOCH><BSTAR>.28376E-3</BSTAR><MEAN_MOTION_DOT>.841E-5</MEAN_MOTION_DOT><MEAN_MOTION_DDOT>0</MEAN_MOTION_DDOT></tleParameters></data></segment></body></omm>
<omm id="CCSDS_OMM_VERS" version="2.0">
<header><CREATION_DATE/><ORIGINATOR/></header><body><segment><metadata><OBJECT_NAME>IRIDIUM 69</OBJECT_NAME><OBJECT_ID>1998-026A</OBJECT_ID><CENTER_NAME>EARTH</CENTER_NAME><REF_FRAME>TEME</REF_FRAME><TIME_SYSTEM>UTC</TIME_SYSTEM><MEAN_ELEMENT_THEORY>SGP4</MEAN_ELEMENT_THEORY></metadata><data><meanElements><EPOCH>2024-07-22T04:33:17.297856</EPOCH><MEAN_MOTION>14.40092899</MEAN_MOTION><ECCENTRICITY>.0003994</ECCENTRICITY><INCLINATION>86.3960</INCLINATION><RA_OF_ASC_NODE>234.6403</RA_OF_ASC_NODE><ARG_OF_PERICENTER>61.4613</ARG_OF_PERICENTER><MEAN_ANOMALY>298.6987</MEAN_ANOMALY></meanElements><tleParameters><EPHEMERIS_TYPE>0</EPHEMERIS_TYPE><CLASSIFICATION_TYPE>U</CLASSIFICATION_TYPE><NORAD_CAT_ID>25319</NORAD_CAT_ID><ELEMENT_SET_NO>999</ELEMENT_SET_NO><REV_AT_EPOCH>37579</REV_AT_EPOCH><BSTAR>.32224E-3</BSTAR><MEAN_MOTION_DOT>.1036E-4</MEAN_MOTION_DOT><MEAN_MOTION_DDOT>0</MEAN_MOTION_DDOT></tleParameters></data></segment></body></omm>
<omm id="CCSDS_OMM_VERS" version="2.0">
<header><CREATION_DATE/><ORIGINATOR/></header><body><segment><metadata><OBJECT_NAME>IRIDIUM 71</OBJECT_NAME><OBJECT_ID>1998-026B</OBJECT_ID><CENTER_NAME>EARTH</CENTER_NAME><REF_FRAME>TEME</REF_FRAME><TIME_SYSTEM>UTC</TIME_SYSTEM><MEAN_ELEMENT_THEORY>SGP4</MEAN_ELEMENT_THEORY></metadata><data><meanElements><EPOCH>2024-07-22T02:42:28.332288</EPOCH><MEAN_MOTION>14.40398789</MEAN_MOTION><ECCENTRICITY>.0004443</ECCENTRICITY><INCLINATION>86.3961</INCLINATION><RA_OF_ASC_NODE>229.4272</RA_OF_ASC_NODE><ARG_OF_PERICENTER>93.3448</ARG_OF_PERICENTER><MEAN_ANOMALY>266.8259</MEAN_ANOMALY></meanElements><tleParameters><EPHEMERIS_TYPE>0</EPHEMERIS_TYPE><CLASSIFICATION_TYPE>U</CLASSIFICATION_TYPE><NORAD_CAT_ID>25320</NORAD_CAT_ID><ELEMENT_SET_NO>999</ELEMENT_SET_NO><REV_AT_EPOCH>37631</REV_AT_EPOCH><BSTAR>.29408E-3</BSTAR><MEAN_MOTION_DOT>.953E-5</MEAN_MOTION_DOT><MEAN_MOTION_DDOT>0</MEAN_MOTION_DDOT></tleParameters></data></segment></body></omm>
<omm id="CCSDS_OMM_VERS" version="2.0">
<header><CREATION_DATE/><ORIGINATOR/></header><body><segment><metadata><OBJECT_NAME>IRIDIUM 73</OBJECT_NAME><OBJECT_ID>1998-032C</OBJECT_ID><CENTER_NAME>EARTH</CENTER_NAME><REF_FRAME>TEME</REF_FRAME><TIME_SYSTEM>UTC</TIME_SYSTEM><MEAN_ELEMENT_THEORY>SGP4</MEAN_ELEMENT_THEORY></metadata><data><meanElements><EPOCH>2024-07-21T23:58:00.001632</EPOCH><MEAN_MOTION>14.50645894</MEAN_MOTION><ECCENTRICITY>.0002779</ECCENTRICITY><INCLINATION>86.4449</INCLINATION><RA_OF_ASC_NODE>186.8755</RA_OF_ASC_NODE><ARG_OF_PERICENTER>78.5530</ARG_OF_PERICENTER><MEAN_ANOMALY>281.5986</MEAN_ANOMALY></meanElements><tleParameters><EPHEMERIS_TYPE>0</EPHEMERIS_TYPE><CLASSIFICATION_TYPE>U</CLASSIFICATION_TYPE><NORAD_CAT_ID>25344</NORAD_CAT_ID><ELEMENT_SET_NO>999</ELEMENT_SET_NO><REV_AT_EPOCH>38297</REV_AT_EPOCH><BSTAR>.3747E-3</BSTAR><MEAN_MOTION_DOT>.149E-4</MEAN_MOTION_DOT><MEAN_MOTION_DDOT>0</MEAN_MOTION_DDOT></tleParameters></data></segment></body></omm>
<omm id="CCSDS_OMM_VERS" version="2.0">
<header><CREATION_DATE/><ORIGINATOR/></header><body><segment><metadata><OBJECT_NAME>IRIDIUM 82</OBJECT_NAME><OBJECT_ID>1998-051A</OBJECT_ID><CENTER_NAME>EARTH</CENTER_NAME><REF_FRAME>TEME</REF_FRAME><TIME_SYSTEM>UTC</TIME_SYSTEM><MEAN_ELEMENT_THEORY>SGP4</MEAN_ELEMENT_THEORY></metadata><data><meanElements><EPOCH>2024-07-21T15:33:18.188352</EPOCH><MEAN_MOTION>15.11691903</MEAN_MOTION><ECCENTRICITY>.0126423</ECCENTRICITY><INCLINATION>86.3754</INCLINATION><RA_OF_ASC_NODE>269.4067</RA_OF_ASC_NODE><ARG_OF_PERICENTER>94.2210</ARG_OF_PERICENTER><MEAN_ANOMALY>267.3487</MEAN_ANOMALY></meanElements><tleParameters><EPHEMERIS_TYPE>0</EPHEMERIS_TYPE><CLASSIFICATION_TYPE>U</CLASSIFICATION_TYPE><NORAD_CAT_ID>25467</NORAD_CAT_ID><ELEMENT_SET_NO>999</ELEMENT_SET_NO><REV_AT_EPOCH>37369</REV_AT_EPOCH><BSTAR>.11363E-2</BSTAR><MEAN_MOTION_DOT>.23568E-3</MEAN_MOTION_DOT><MEAN_MOTION_DDOT>0</MEAN_MOTION_DDOT></tleParameters></data></segment></body></omm>
</ndm>
